[{"OBJECT_NAME":"STARLINK-34431","OBJECT_ID":"2025-126K","EPOCH":"2026-03-09T22:52:30.388800","MEAN_MOTION":14.983227,"ECCENTRICITY":0.00030241,"INCLINATION":70.0026,"RA_OF_ASC_NODE":33.7034,"ARG_OF_PERICENTER":273.2517,"MEAN_ANOMALY":86.8296,"EPHEMERIS_TYPE":0,"CLASSIFICATION_TYPE":"U","NORAD_CAT_ID":64353,"ELEMENT_SET_NO":999,"REV_AT_EPOCH":4072,"BSTAR":0.00067110135,"MEAN_MOTION_DOT":7.922e-5,"MEAN_MOTION_DDOT":0},{"OBJECT_NAME":"ARIANE 5 R\/B","OBJECT_ID":"2004-049H","EPOCH":"2026-03-09T21:39:04.642848","MEAN_MOTION":14.85266245,"ECCENTRICITY":0.00839202,"INCLINATION":98.2628,"RA_OF_ASC_NODE":237.3671,"ARG_OF_PERICENTER":351.2342,"MEAN_ANOMALY":8.7401,"EPHEMERIS_TYPE":0,"CLASSIFICATION_TYPE":"U","NORAD_CAT_ID":28499,"ELEMENT_SET_NO":999,"REV_AT_EPOCH":14582,"BSTAR":0.0001160231,"MEAN_MOTION_DOT":9.95e-6,"MEAN_MOTION_DDOT":0}]
